start=new Date('2021-09-05T00:00:00.000Z').valueOf();
sats=[{"FILE":"3108751","EPOCH":"2021-09-04T16:40:51.986496","MEAN_MOTION":"15.06394922","OBJECT_ID":"2020-073C","ELEMENT_SET_NO":"999","TLE_LINE1":"1 46672U 20073C   21247.69504614 -.00000921  00000-0 -42936-4 0  9990","MEAN_MOTION_DDOT":"0.0000000000000","GP_ID":"184105078","ARG_OF_PERICENTER":"83.2630","CENTER_NAME":"EARTH","REF_FRAME":"TEME","TIME_SYSTEM":"UTC","BSTAR":"-0.00004293600000","REV_AT_EPOCH":"4889","MEAN_ELEMENT_THEORY":"SGP4","RA_OF_ASC_NODE":"75.2669","TLE_LINE2":"2 46672  53.0540  75.2669 0002104  83.2630 276.8598 15.06394922 48893","PERIAPSIS":"545.772","LAUNCH_DATE":"2020-10-18","MEAN_MOTION_DOT":"-0.00000921","ECCENTRICITY":"0.00021040","APOAPSIS":"548.686","PERIOD":"95.592","CLASSIFICATION_TYPE":"U","RCS_SIZE":"LARGE","DECAY_DATE":null,"INCLINATION":"53.0540","SITE":"AFETR","OBJECT_TYPE":"PAYLOAD","NORAD_CAT_ID":"46672","COUNTRY_CODE":"US","EPHEMERIS_TYPE":"0","OBJECT_NAME":"STARLINK-1716","SEMIMAJOR_AXIS":"6925.364","MEAN_ANOMALY":"276.8598"},{"LAUNCH_DATE":"2020-10-18","PERIAPSIS":"546.057","ECCENTRICITY":"0.00016980","MEAN_MOTION_DOT":"-0.00000577","BSTAR":"-0.00001986400000","MEAN_ELEMENT_THEORY":"SGP4","REV_AT_EPOCH":"4861","TLE_LINE2":"2 46673  53.0548  92.1944 0001698  90.2598 269.8586 15.06393724 48612","RA_OF_ASC_NODE":"92.1944","TIME_SYSTEM":"UTC","ARG_OF_PERICENTER":"90.2598","CENTER_NAME":"EARTH","REF_FRAME":"TEME","TLE_LINE1":"1 46673U 20073D   21247.26699300 -.00000577  00000-0 -19864-4 0  9992","GP_ID":"184077876","MEAN_MOTION_DDOT":"0.0000000000000","ELEMENT_SET_NO":"999","FILE":"3108585","MEAN_MOTION":"15.06393724","EPOCH":"2021-09-04T06:24:28.195200","OBJECT_ID":"2020-073D","MEAN_ANOMALY":"269.8586","COUNTRY_CODE":"US","EPHEMERIS_TYPE":"0","OBJECT_NAME":"STARLINK-1717","SEMIMAJOR_AXIS":"6925.368","NORAD_CAT_ID":"46673","OBJECT_TYPE":"PAYLOAD","INCLINATION":"53.0548","SITE":"AFETR","APOAPSIS":"548.409","PERIOD":"95.593","CLASSIFICATION_TYPE":"U","RCS_SIZE":"LARGE","DECAY_DATE":null},{"OBJECT_ID":"2020-073E","MEAN_MOTION":"15.06400366","EPOCH":"2021-09-04T15:42:29.574144","FILE":"3108751","MEAN_MOTION_DDOT":"0.0000000000000","GP_ID":"184106080","TLE_LINE1":"1 46674U 20073E   21247.65450896  .00000893  00000-0  78834-4 0  9992","ELEMENT_SET_NO":"999","TIME_SYSTEM":"UTC","REF_FRAME":"TEME","CENTER_NAME":"EARTH","ARG_OF_PERICENTER":"82.9869","ECCENTRICITY":"0.00019020","MEAN_MOTION_DOT":"0.00000893","PERIAPSIS":"545.895","LAUNCH_DATE":"2020-10-18","RA_OF_ASC_NODE":"75.4515","TLE_LINE2":"2 46674  53.0546  75.4515 0001902  82.9869 277.1336 15.06400366 48881","MEAN_ELEMENT_THEORY":"SGP4","REV_AT_EPOCH":"4888","BSTAR":"0.00007883400000","RCS_SIZE":"LARGE","DECAY_DATE":null,"CLASSIFICATION_TYPE":"U","PERIOD":"95.592","APOAPSIS":"548.530","OBJECT_TYPE":"PAYLOAD","SITE":"AFETR","INCLINATION":"53.0546","NORAD_CAT_ID":"46674","MEAN_ANOMALY":"277.1336","SEMIMAJOR_AXIS":"6925.347","OBJECT_NAME":"STARLINK-1718","EPHEMERIS_TYPE":"0","COUNTRY_CODE":"US"},{"NORAD_CAT_ID":"46675","SEMIMAJOR_AXIS":"6925.332","OBJECT_NAME":"STARLINK-1720","EPHEMERIS_TYPE":"0","COUNTRY_CODE":"US","MEAN_ANOMALY":"271.2073","DECAY_DATE":null,"RCS_SIZE":"LARGE","CLASSIFICATION_TYPE":"U","PERIOD":"95.592","APOAPSIS":"548.547","SITE":"AFETR","INCLINATION":"53.0549","OBJECT_TYPE":"PAYLOAD","REF_FRAME":"TEME","CENTER_NAME":"EARTH","ARG_OF_PERICENTER":"88.9139","TIME_SYSTEM":"UTC","TLE_LINE2":"2 46675  53.0549  75.1721 0001949  88.9139 271.2073 15.06405290 48893","RA_OF_ASC_NODE":"75.1721","MEAN_ELEMENT_THEORY":"SGP4","REV_AT_EPOCH":"4889","BSTAR":"0.00008700300000","MEAN_MOTION_DOT":"0.00001015","ECCENTRICITY":"0.00019490","PERIAPSIS":"545.848","LAUNCH_DATE":"2020-10-18","OBJECT_ID":"2020-073F","EPOCH":"2021-09-04T17:12:42.356160","MEAN_MOTION":"15.06405290","FILE":"3108751","ELEMENT_SET_NO":"999","GP_ID":"184104329","MEAN_MOTION_DDOT":"0.0000000000000","TLE_LINE1":"1 46675U 20073F   21247.71715690  .00001015  00000-0  87003-4 0  9991"},{"TIME_SYSTEM":"UTC","ARG_OF_PERICENTER":"355.0495","CENTER_NAME":"EARTH","REF_FRAME":"TEME","LAUNCH_DATE":"2020-10-18","PERIAPSIS":"364.658","MEAN_MOTION_DOT":"0.00124939","ECCENTRICITY":"0.00042140","BSTAR":"0.00113990000000","MEAN_ELEMENT_THEORY":"SGP4","REV_AT_EPOCH":"4947","TLE_LINE2":"2 46676  53.0566  30.6286 0004214 355.0495   5.0478 15.66997850 49477","RA_OF_ASC_NODE":"30.6286","FILE":"3108585","EPOCH":"2021-09-04T03:16:55.968960","MEAN_MOTION":"15.66997850","OBJECT_ID":"2020-073G","TLE_LINE1":"1 46676U 20073G   21247.13675890  .00124939  00000-0  11399-2 0  9999","GP_ID":"184079127","MEAN_MOTION_DDOT":"0.0000000000000","ELEMENT_SET_NO":"999","NORAD_CAT_ID":"46676","MEAN_ANOMALY":"5.0478","COUNTRY_CODE":"US","EPHEMERIS_TYPE":"0","OBJECT_NAME":"STARLINK-1731","SEMIMAJOR_AXIS":"6745.636","APOAPSIS":"370.344","PERIOD":"91.895","CLASSIFICATION_TYPE":"U","RCS_SIZE":"LARGE","DECAY_DATE":null,"OBJECT_TYPE":"PAYLOAD","INCLINATION":"53.0566","SITE":"AFETR"},{"ELEMENT_SET_NO":"999","TLE_LINE1":"1 46677U 20073H   21247.24904972  .00001044  00000-0  88992-4 0  9994","MEAN_MOTION_DDOT":"0.0000000000000","GP_ID":"184077376","FILE":"3108585","OBJECT_ID":"2020-073H","EPOCH":"2021-09-04T05:58:37.895808","MEAN_MOTION":"15.06401415","BSTAR":"0.00008899200000","TLE_LINE2":"2 46677  53.0561  77.2791 0001983 100.9148 259.2065 15.06401415 48827","RA_OF_ASC_NODE":"77.2791","REV_AT_EPOCH":"4882","MEAN_ELEMENT_THEORY":"SGP4","LAUNCH_DATE":"2020-10-18","PERIAPSIS":"545.836","ECCENTRICITY":"0.00019830","MEAN_MOTION_DOT":"0.00001044","CENTER_NAME":"EARTH","ARG_OF_PERICENTER":"100.9148","REF_FRAME":"TEME","TIME_SYSTEM":"UTC","SITE":"AFETR","INCLINATION":"53.0561","OBJECT_TYPE":"PAYLOAD","PERIOD":"95.592","APOAPSIS":"548.583","DECAY_DATE":null,"RCS_SIZE":"LARGE","CLASSIFICATION_TYPE":"U","COUNTRY_CODE":"US","EPHEMERIS_TYPE":"0","SEMIMAJOR_AXIS":"6925.344","OBJECT_NAME":"STARLINK-1766","MEAN_ANOMALY":"259.2065","NORAD_CAT_ID":"46677"},{"BSTAR":"0.00011397000000","RA_OF_ASC_NODE":"57.5251","TLE_LINE2":"2 46679  53.0553  57.5251 0005500  60.5347 299.6190 15.06398595 49094","REV_AT_EPOCH":"4909","MEAN_ELEMENT_THEORY":"SGP4","LAUNCH_DATE":"2020-10-18","PERIAPSIS":"543.409","ECCENTRICITY":"0.00055000","MEAN_MOTION_DOT":"0.00001415","CENTER_NAME":"EARTH","ARG_OF_PERICENTER":"60.5347","REF_FRAME":"TEME","TIME_SYSTEM":"UTC","ELEMENT_SET_NO":"999","TLE_LINE1":"1 46679U 20073K   21247.18824982  .00001415  00000-0  11397-3 0  9997","GP_ID":"184078126","MEAN_MOTION_DDOT":"0.0000000000000","FILE":"3108585","OBJECT_ID":"2020-073K","MEAN_MOTION":"15.06398595","EPOCH":"2021-09-04T04:31:04.784448","EPHEMERIS_TYPE":"0","COUNTRY_CODE":"US","SEMIMAJOR_AXIS":"6925.353","OBJECT_NAME":"STARLINK-1773","MEAN_ANOMALY":"299.6190","NORAD_CAT_ID":"46679","SITE":"AFETR","INCLINATION":"53.0553","OBJECT_TYPE":"PAYLOAD","PERIOD":"95.592","APOAPSIS":"551.027","DECAY_DATE":null,"RCS_SIZE":"LARGE","CLASSIFICATION_TYPE":"U"},{"ELEMENT_SET_NO":"999","GP_ID":"184104829","MEAN_MOTION_DDOT":"0.0000000000000","TLE_LINE1":"1 46680U 20073L   21247.72131511  .00001381  00000-0  11162-3 0  9990","OBJECT_ID":"2020-073L","EPOCH":"2021-09-04T17:18:41.625504","MEAN_MOTION":"15.06402580","FILE":"3108751","RA_OF_ASC_NODE":"90.1427","TLE_LINE2":"2 46680  53.0539  90.1427 0002118  92.8181 267.3051 15.06402580 48686","REV_AT_EPOCH":"4868","MEAN_ELEMENT_THEORY":"SGP4","BSTAR":"0.00011162000000","MEAN_MOTION_DOT":"0.00001381","ECCENTRICITY":"0.00021180","LAUNCH_DATE":"2020-10-18","PERIAPSIS":"545.739","REF_FRAME":"TEME","CENTER_NAME":"EARTH","ARG_OF_PERICENTER":"92.8181","TIME_SYSTEM":"UTC","SITE":"AFETR","INCLINATION":"53.0539","OBJECT_TYPE":"PAYLOAD","DECAY_DATE":null,"RCS_SIZE":"LARGE","CLASSIFICATION_TYPE":"U","PERIOD":"95.592","APOAPSIS":"548.672","SEMIMAJOR_AXIS":"6925.341","OBJECT_NAME":"STARLINK-1774","EPHEMERIS_TYPE":"0","COUNTRY_CODE":"US","MEAN_ANOMALY":"267.3051","NORAD_CAT_ID":"46680"},{"ELEMENT_SET_NO":"999","TLE_LINE1":"1 46681U 20073M   21247.29372352  .00000883  00000-0  78143-4 0  9992","MEAN_MOTION_DDOT":"0.0000000000000","GP_ID":"184078627","FILE":"3108585","MEAN_MOTION":"15.06407291","EPOCH":"2021-09-04T07:02:57.712128","OBJECT_ID":"2020-073M","BSTAR":"0.00007814300000","REV_AT_EPOCH":"4861","MEAN_ELEMENT_THEORY":"SGP4","RA_OF_ASC_NODE":"92.0631","TLE_LINE2":"2 46681  53.0557  92.0631 0001986  86.2757 273.8459 15.06407291 48614","LAUNCH_DATE":"2020-10-18","PERIAPSIS":"545.816","MEAN_MOTION_DOT":"0.00000883","ECCENTRICITY":"0.00019860","ARG_OF_PERICENTER":"86.2757","CENTER_NAME":"EARTH","REF_FRAME":"TEME","TIME_SYSTEM":"UTC","INCLINATION":"53.0557","SITE":"AFETR","OBJECT_TYPE":"PAYLOAD","APOAPSIS":"548.567","PERIOD":"95.592","CLASSIFICATION_TYPE":"U","RCS_SIZE":"LARGE","DECAY_DATE":null,"COUNTRY_CODE":"US","EPHEMERIS_TYPE":"0","OBJECT_NAME":"STARLINK-1775","SEMIMAJOR_AXIS":"6925.326","MEAN_ANOMALY":"273.8459","NORAD_CAT_ID":"46681"},{"OBJECT_ID":"2020-073N","EPOCH":"2021-09-04T17:13:22.412928","MEAN_MOTION":"15.06396159","FILE":"3108751","GP_ID":"184105331","MEAN_MOTION_DDOT":"0.0000000000000","TLE_LINE1":"1 46682U 20073N   21247.71762052 -.00000620  00000-0 -22725-4 0  9996","ELEMENT_SET_NO":"999","TIME_SYSTEM":"UTC","REF_FRAME":"TEME","CENTER_NAME":"EARTH","ARG_OF_PERICENTER":"78.0492","MEAN_MOTION_DOT":"-0.00000620","ECCENTRICITY":"0.00022770","PERIAPSIS":"545.648","LAUNCH_DATE":"2020-10-18","TLE_LINE2":"2 46682  53.0552  90.1720 0002277  78.0492 282.0752 15.06396159 48682","RA_OF_ASC_NODE":"90.1720","MEAN_ELEMENT_THEORY":"SGP4","REV_AT_EPOCH":"4868","BSTAR":"-0.00002272500000","RCS_SIZE":"LARGE","DECAY_DATE":null,"CLASSIFICATION_TYPE":"U","PERIOD":"95.592","APOAPSIS":"548.802","OBJECT_TYPE":"PAYLOAD","SITE":"AFETR","INCLINATION":"53.0552","NORAD_CAT_ID":"46682","MEAN_ANOMALY":"282.0752","SEMIMAJOR_AXIS":"6925.360","OBJECT_NAME":"STARLINK-1776","EPHEMERIS_TYPE":"0","COUNTRY_CODE":"US"}];
